WORLDVIEW-1 (WV-1)      
1 32060U 07041A   26204.26237580  .00005849  00000+0  23990-3 0  9991
2 32060  97.3902 323.5035 0002309 176.1992 183.9264 15.24624893 48372
WORLDVIEW-2 (WV-2)      
1 35946U 09055A   26204.27884148  .00000075  00000+0  39153-4 0  9998
2 35946  98.4750 277.2369 0005545 110.6811 249.4971 14.37908592880836
WORLDVIEW-3 (WV-3)      
1 40115U 14048A   26204.28255308  .00000651  00000+0  82501-4 0  9996
2 40115  97.8550 278.6150 0001868 143.3891 216.7452 14.85073409647261
